NORAD_CAT_ID,OBJECT_NAME,OBJECT_TYPE,EPOCH,MEAN_MOTION,ECCENTRICITY,INCLINATION,RA_OF_ASC_NODE,ARG_OF_PERICENTER,MEAN_ANOMALY,BSTAR,MEAN_MOTION_DOT,MEAN_MOTION_DDOT,TLE_LINE0,TLE_LINE1,TLE_LINE2,SEMIMAJOR_AXIS,PERIOD,APOGEE,PERIGEE,DECAYED
53801.0,STARLINK-4715,PAYLOAD,2023-03-19 18:45:50,15.08838226,0.0001244,53.2168,98.7787,96.6498,263.4635,3.2316e-05,2.26e-06,0.0,0 STARLINK-4715,1 53801U 22111AE  23078.78183366  .00000226  00000-0  32316-4 0  9995,2 53801  53.2168  98.7787 0001244  96.6498 263.4635 15.08838226 29882,6917.886,95.438,540.611,538.89,0.0
53801.0,STARLINK-4715,PAYLOAD,2023-03-20 07:28:56,15.08819748,0.0001195,53.2169,96.3996,97.0589,263.0539,0.00035915,5.429e-05,0.0,0 STARLINK-4715,1 53801U 22111AE  23079.31176325  .00005429  00000-0  35915-3 0  9999,2 53801  53.2169  96.3996 0001195  97.0589 263.0539 15.08819748 29157,6917.942,95.439,540.634,538.981,0.0
53801.0,STARLINK-4715,PAYLOAD,2023-03-20 10:39:41,15.08841492,0.000128,53.2167,95.805,88.859,271.2549,0.00010042,1.311e-05,0.0,0 STARLINK-4715,1 53801U 22111AE  23079.44423193  .00001311  00000-0  10042-3 0  9991,2 53801  53.2167  95.8050 0001280  88.8590 271.2549 15.08841492 29170,6917.876,95.437,540.626,538.855,0.0
53801.0,STARLINK-4715,PAYLOAD,2023-03-20 18:36:37,15.08841233,0.0001333,53.2172,94.3181,92.6076,267.5068,8.0246e-05,9.89e-06,0.0,0 STARLINK-4715,1 53801U 22111AE  23079.77543256  .00000989  00000-0  80246-4 0  9994,2 53801  53.2172  94.3181 0001333  92.6076 267.5068 15.08841233 30030,6917.877,95.437,540.664,538.819,0.0
53801.0,STARLINK-4715,PAYLOAD,2023-03-21 07:19:42,15.0884708,0.0001296,53.2171,91.9393,92.4982,267.6159,0.00010012,1.306e-05,0.0,0 STARLINK-4715,1 53801U 22111AE  23080.30534849  .00001306  00000-0  10012-3 0  9990,2 53801  53.2171  91.9393 0001296  92.4982 267.6159 15.08847080 30116,6917.859,95.437,540.62,538.827,0.0
53801.0,STARLINK-4715,PAYLOAD,2023-03-22 05:35:06,15.08835836,0.0001255,53.217,87.7779,81.8749,278.2386,8.3811e-05,1.046e-05,0.0,0 STARLINK-4715,1 53801U 22111AE  23081.23271653  .00001046  00000-0  83811-4 0  9993,2 53801  53.2170  87.7779 0001255  81.8749 278.2386 15.08835836 29444,6917.893,95.438,540.626,538.89,0.0
53801.0,STARLINK-4715,PAYLOAD,2023-03-22 10:21:15,15.08843495,0.0001161,53.2162,86.8845,90.0703,270.0423,6.1077e-05,6.84e-06,0.0,0 STARLINK-4715,1 53801U 22111AE  23081.43143174  .00000684  00000-0  61077-4 0  9998,2 53801  53.2162  86.8845 0001161  90.0703 270.0423 15.08843495 29472,6917.87,95.437,540.538,538.932,0.0
53801.0,STARLINK-4715,PAYLOAD,2023-03-23 05:25:53,15.08841724,0.0001217,53.2163,83.316,94.1397,265.9734,4.4512e-05,4.21e-06,0.0,0 STARLINK-4715,1 53801U 22111AE  23082.22631358  .00000421  00000-0  44512-4 0  9996,2 53801  53.2163  83.3160 0001217  94.1397 265.9734 15.08841724 30407,6917.875,95.437,540.582,538.898,0.0
53801.0,STARLINK-4715,PAYLOAD,2023-03-23 16:33:35,15.08847044,0.000114,53.2166,81.2344,110.8098,249.3017,2.0114e-05,3.2e-07,0.0,0 STARLINK-4715,1 53801U 22111AE  23082.68998892  .00000032  00000-0  20114-4 0  9995,2 53801  53.2166  81.2344 0001140 110.8098 249.3017 15.08847044 29667,6917.859,95.437,540.512,538.935,0.0
53801.0,STARLINK-4715,PAYLOAD,2023-03-24 06:52:03,15.08844328,0.000124,53.219,78.5618,106.6708,253.442,0.00014622,2.04e-05,0.0,0 STARLINK-4715,1 53801U 22111AE  23083.28615301  .00002040  00000-0  14622-3 0  9990,2 53801  53.2190  78.5618 0001240 106.6708 253.4420 15.08844328 29755,6917.867,95.437,540.59,538.874,0.0
53801.0,STARLINK-4715,PAYLOAD,2023-03-24 16:24:22,15.08848229,0.000129,53.2196,76.7785,103.7815,256.3321,5.4941e-05,5.87e-06,0.0,0 STARLINK-4715,1 53801U 22111AE  23083.68359125  .00000587  00000-0  54941-4 0  9996,2 53801  53.2196  76.7785 0001290 103.7815 256.3321 15.08848229 30622,6917.855,95.437,540.613,538.828,0.0
53801.0,STARLINK-4715,PAYLOAD,2023-03-25 05:07:27,15.08841044,0.000138,53.2186,74.3966,101.3232,258.7916,6.1517e-05,6.91e-06,0.0,0 STARLINK-4715,1 53801U 22111AE  23084.21351583  .00000691  00000-0  61517-4 0  9999,2 53801  53.2186  74.3966 0001380 101.3232 258.7916 15.08841044 29894,6917.877,95.437,540.697,538.788,0.0
53801.0,STARLINK-4715,PAYLOAD,2023-03-25 16:15:09,15.08840015,0.0001626,53.219,72.3171,92.0058,268.1121,7.252e-05,8.66e-06,0.0,0 STARLINK-4715,1 53801U 22111AE  23084.67719774  .00000866  00000-0  72520-4 0  9999,2 53801  53.2190  72.3171 0001626  92.0058 268.1121 15.08840015 30779,6917.88,95.438,540.87,538.62,0.0
53801.0,STARLINK-4715,PAYLOAD,2023-03-26 04:58:15,15.08836313,0.0001648,53.22,69.9351,82.8286,277.2894,-1.0342e-05,-4.53e-06,0.0,0 STARLINK-4715,1 53801U 22111AE  23085.20712378 -.00000453  00000-0 -10342-4 0  9990,2 53801  53.2200  69.9351 0001648  82.8286 277.2894 15.08836313 30041,6917.892,95.438,540.897,538.617,0.0
53801.0,STARLINK-4715,PAYLOAD,2023-03-26 16:05:57,15.08839596,0.0001683,53.2208,67.8563,86.9988,273.1197,3.461e-05,2.63e-06,0.0,0 STARLINK-4715,1 53801U 22111AE  23085.67080125  .00000263  00000-0  34610-4 0  9990,2 53801  53.2208  67.8563 0001683  86.9988 273.1197 15.08839596 30928,6917.882,95.438,540.911,538.582,0.0
53801.0,STARLINK-4715,PAYLOAD,2023-03-27 04:49:01,15.08843708,0.000138,53.218,65.4746,94.4263,265.6887,5.3376e-05,5.62e-06,0.0,0 STARLINK-4715,1 53801U 22111AE  23086.20071736  .00000562  00000-0  53376-4 0  9990,2 53801  53.2180  65.4746 0001380  94.4263 265.6887 15.08843708 30199,6917.869,95.437,540.689,538.779,0.0
53801.0,STARLINK-4715,PAYLOAD,2023-03-27 07:59:48,15.08845686,0.0001368,53.2175,64.8804,93.3811,266.7338,6.8079e-05,7.96e-06,0.0,0 STARLINK-4715,1 53801U 22111AE  23086.33319571  .00000796  00000-0  68079-4 0  9991,2 53801  53.2175  64.8804 0001368  93.3811 266.7338 15.08845686 31027,6917.863,95.437,540.674,538.782,0.0
53801.0,STARLINK-4715,PAYLOAD,2023-03-27 15:56:43,15.08846502,0.0001095,53.2177,63.3953,88.1843,271.9275,2.7617e-05,1.52e-06,0.0,0 STARLINK-4715,1 53801U 22111AE  23086.66439492  .00000152  00000-0  27617-4 0  9991,2 53801  53.2177  63.3953 0001095  88.1843 271.9275 15.08846502 31073,6917.861,95.437,540.483,538.968,0.0
53801.0,STARLINK-4715,PAYLOAD,2023-03-28 07:50:35,15.08844817,0.0001129,53.2175,60.4193,92.7484,267.3637,0.00013553,1.87e-05,0.0,0 STARLINK-4715,1 53801U 22111AE  23087.32679437  .00001870  00000-0  13553-3 0  9991,2 53801  53.2175  60.4193 0001129  92.7484 267.3637 15.08844817 31174,6917.866,95.437,540.512,538.95,0.0
53801.0,STARLINK-4715,PAYLOAD,2023-03-28 15:47:30,15.08843005,0.0001107,53.2181,58.9344,76.3319,283.7796,9.4874e-05,1.223e-05,0.0,0 STARLINK-4715,1 53801U 22111AE  23087.65799654  .00001223  00000-0  94874-4 0  9999,2 53801  53.2181  58.9344 0001107  76.3319 283.7796 15.08843005 30414,6917.871,95.437,540.502,538.97,0.0
53801.0,STARLINK-4715,PAYLOAD,2023-03-29 07:41:21,15.08852986,0.0001046,53.2174,55.9616,74.272,285.8387,0.00011938,1.613e-05,0.0,0 STARLINK-4715,1 53801U 22111AE  23088.32039000  .00001613  00000-0  11938-3 0  9998,2 53801  53.2174  55.9616 0001046  74.2720 285.8387 15.08852986 31328,6917.841,95.437,540.429,538.982,0.0
53801.0,STARLINK-4715,PAYLOAD,2023-03-30 05:56:46,15.0885095,0.0001051,53.2187,51.7985,77.2306,282.8803,-1.1896e-05,-4.77e-06,0.0,0 STARLINK-4715,1 53801U 22111AE  23089.24775529 -.00000477  00000-0 -11896-4 0  9996,2 53801  53.2187  51.7985 0001051  77.2306 282.8803 15.08850950 30658,6917.847,95.437,540.439,538.985,0.0
53801.0,STARLINK-4715,PAYLOAD,2023-03-30 07:32:09,15.08850596,0.0001116,53.2185,51.499,81.4,278.7119,2.7508e-05,1.5e-06,0.0,0 STARLINK-4715,1 53801U 22111AE  23089.31399420  .00000150  00000-0  27508-4 0  9999,2 53801  53.2185  51.4990 0001116  81.4000 278.7119 15.08850596 31470,6917.848,95.437,540.485,538.941,0.0
53801.0,STARLINK-4715,PAYLOAD,2023-04-01 05:38:21,15.08839953,0.000108,53.2183,42.8758,90.4892,269.6224,6.9001e-06,-1.78e-06,0.0,0 STARLINK-4715,1 53801U 22111AE  23091.23496692 -.00000178  00000-0  69001-5 0  9998,2 53801  53.2183  42.8758 0001080  90.4892 269.6224 15.08839953 30955,6917.881,95.438,540.493,538.998,0.0
53801.0,STARLINK-4715,PAYLOAD,2023-04-01 07:13:44,15.08839744,0.0001177,53.2187,42.5785,88.8997,271.213,1.6022e-05,-3.3e-07,0.0,0 STARLINK-4715,1 53801U 22111AE  23091.30120712 -.00000033  00000-0  16022-4 0  9997,2 53801  53.2187  42.5785 0001177  88.8997 271.2130 15.08839744 31774,6917.881,95.438,540.56,538.932,0.0
53801.0,STARLINK-4715,PAYLOAD,2023-04-02 05:29:08,15.08847154,0.0001784,53.2185,38.4157,91.5245,268.5951,4.8301e-05,4.81e-06,0.0,0 STARLINK-4715,1 53801U 22111AE  23092.22856608  .00000481  00000-0  48301-4 0  9990,2 53801  53.2185  38.4157 0001784  91.5245 268.5951 15.08847154 31910,6917.859,95.437,540.958,538.489,0.0
53801.0,STARLINK-4715,PAYLOAD,2023-04-03 03:44:31,15.0884618,0.0001283,53.2186,34.2526,91.4979,268.616,0.00012908,1.767e-05,0.0,0 STARLINK-4715,1 53801U 22111AE  23093.15592458  .00001767  00000-0  12908-3 0  9994,2 53801  53.2186  34.2526 0001283  91.4979 268.6160 15.08846180 32059,6917.861,95.437,540.614,538.839,0.0
53801.0,STARLINK-4715,PAYLOAD,2023-04-03 19:38:23,15.08844257,0.0001453,53.2195,31.2804,123.3911,236.722,-2.8781e-05,-7.46e-06,0.0,0 STARLINK-4715,1 53801U 22111AE  23093.81832953 -.00000746  00000-0 -28781-4 0  9999,2 53801  53.2195  31.2804 0001453 123.3911 236.7220 15.08844257 31342,6917.867,95.437,540.738,538.727,0.0
53801.0,STARLINK-4715,PAYLOAD,2023-04-04 05:10:41,15.08850584,0.0001234,53.2184,29.4924,104.75,255.3629,1.0137e-05,-1.27e-06,0.0,0 STARLINK-4715,1 53801U 22111AE  23094.21576338 -.00000127  00000-0  10137-4 0  9994,2 53801  53.2184  29.4924 0001234 104.7500 255.3629 15.08850584 32213,6917.848,95.437,540.567,538.859,0.0
53801.0,STARLINK-4715,PAYLOAD,2023-04-05 05:01:28,15.0884925,0.0001351,53.2188,25.0323,93.8848,266.2299,4.4313e-05,4.18e-06,0.0,0 STARLINK-4715,1 53801U 22111AE  23095.20936203  .00000418  00000-0  44313-4 0  9990,2 53801  53.2188  25.0323 0001351  93.8848 266.2299 15.08849250 32363,6917.852,95.437,540.652,538.783,0.0
